0 COSMOS 397 DEB
1 05014U 71015H   13283.15744003  .00001143  00000-0  38351-3 0  8705
2 05014 065.5926 303.3776 0670471 148.2937 327.6467 13.57561554 42567
0 COSMOS 397 DEB
1 05014U 71015H   13286.10360250  .00001440  00000-0  47487-3 0  8723
2 05014 065.5928 296.1845 0670299 147.0054 326.2136 13.57566422 42961
0 COSMOS 397 DEB
1 05014U 71015H   13287.13710979  .00001705  00000-0  55657-3 0  8737
2 05014 065.5925 293.6603 0670190 146.5486 337.2232 13.57567772 43100
0 COSMOS 397 DEB
1 05014U 71015H   13288.46986862  .00002058  00000-0  66599-3 0  8740
2 05014 065.5925 290.4028 0669925 145.9515 010.7670 13.57577640 43289
0 COSMOS 397 DEB
1 05014U 71015H   13289.48694800  .00002050  00000-0  66321-3 0  8757
2 05014 065.5925 287.9205 0670021 145.5154 301.5125 13.57579184 43428
0 COSMOS 397 DEB
1 05014U 71015H   13291.18090054  .00001763  00000-0  57513-3 0  8762
2 05014 065.5928 283.7830 0669834 144.7664 300.3653 13.57584244 43657
0 COSMOS 397 DEB
1 05014U 71015H   13292.44891690  .00001767  00000-0  57673-3 0  8779
2 05014 065.5931 280.6859 0669735 144.2092 017.5604 13.57587859 43825
0 COSMOS 397 DEB
1 05014U 71015H   13293.46524429  .00001714  00000-0  56073-3 0  8781
2 05014 065.5929 278.2021 0669531 143.7537 304.6914 13.57591816 43965
0 COSMOS 397 DEB
1 05014U 71015H   13294.78940660  .00001895  00000-0  61670-3 0  8796
2 05014 065.5929 274.9681 0669421 143.1699 296.3235 13.57596574 44141
0 COSMOS 397 DEB
1 05014U 71015H   13296.12509650  .00001916  00000-0  62356-3 0  8804
2 05014 065.5929 271.7059 0669308 142.5826 344.3096 13.57600356 44327
